[
  {
    "Id": "3041565",
    "Code": "AD",
    "Languages": "ca",
    "Name_EN": "Andorra",
    "Name_FA": "اندورا",
    "Name_AR": "اندورا",
    "CallingCode": "+376",
    "Latitude": 42.535,
    "Longitude": 1.55903
  },
  {
    "Id": "290557",
    "Code": "AE",
    "Languages": "ar-AE,fa,en,hi,ur",
    "Name_EN": "United Arab Emirates",
    "Name_FA": "امارات متحده عربی",
    "Name_AR": "الامارات العربية المتحدة",
    "CallingCode": "+971",
    "Latitude": 25.05543,
    "Longitude": 55.37373
  },
  {
    "Id": "1149361",
    "Code": "AF",
    "Languages": "fa-AF,ps,uz-AF,tk",
    "Name_EN": "Afghanistan",
    "Name_FA": "افغانستان",
    "Name_AR": "افغانستان",
    "CallingCode": "+93",
    "Latitude": 34.61548,
    "Longitude": 67.53237
  },
  {
    "Id": "3576396",
    "Code": "AG",
    "Languages": "en-AG",
    "Name_EN": "Antigua and Barbuda",
    "Name_FA": "انتیگوا و باربودا",
    "Name_AR": "انتيغوا وبربودا",
    "CallingCode": "+1-268",
    "Latitude": 17.10227,
    "Longitude": -61.80866
  },
  {
    "Id": "3573511",
    "Code": "AI",
    "Languages": "en-AI",
    "Name_EN": "Anguilla",
    "Name_FA": "انگیل",
    "Name_AR": "انغويلا",
    "CallingCode": "+1-264",
    "Latitude": 18.21045,
    "Longitude": -63.05725
  },
  {
    "Id": "783754",
    "Code": "AL",
    "Languages": "sq,el",
    "Name_EN": "Albania",
    "Name_FA": "البانی",
    "Name_AR": "البانيا",
    "CallingCode": "+355",
    "Latitude": 41.06292,
    "Longitude": 20.00468
  },
  {
    "Id": "174982",
    "Code": "AM",
    "Languages": "hy",
    "Name_EN": "Armenia",
    "Name_FA": "ارمنستان",
    "Name_AR": "ارمينيا",
    "CallingCode": "+374",
    "Latitude": 40.3524,
    "Longitude": 44.59562
  },
  {
    "Id": "3351879",
    "Code": "AO",
    "Languages": "pt-AO",
    "Name_EN": "Angola",
    "Name_FA": "انگولا",
    "Name_AR": "انغولا",
    "CallingCode": "+244",
    "Latitude": -11.07257,
    "Longitude": 15.94345
  },
  {
    "Id": "6697173",
    "Code": "AQ",
    "Languages": "",
    "Name_EN": "Antarctica",
    "Name_FA": "جنوبگان",
    "Name_AR": "القطب الجنوبي",
    "CallingCode": "+",
    "Latitude": 0,
    "Longitude": 0
  },
  {
    "Id": "3865483",
    "Code": "AR",
    "Languages": "es-AR,en,it,de,fr,gn",
    "Name_EN": "Argentina",
    "Name_FA": "ارژانتین",
    "Name_AR": "الارجنتين",
    "CallingCode": "+54",
    "Latitude": -32.15954,
    "Longitude": -62.48958
  },
  {
    "Id": "5880801",
    "Code": "AS",
    "Languages": "en-AS,sm,to",
    "Name_EN": "American Samoa",
    "Name_FA": "ساموای امریکا",
    "Name_AR": "ساموا الامريكية",
    "CallingCode": "+1-684",
    "Latitude": -14.18902,
    "Longitude": -170.61237
  },
  {
    "Id": "2782113",
    "Code": "AT",
    "Languages": "de-AT,hr,hu,sl",
    "Name_EN": "Austria",
    "Name_FA": "اتریش",
    "Name_AR": "النمسا",
    "CallingCode": "+43",
    "Latitude": 47.63552,
    "Longitude": 14.43169
  },
  {
    "Id": "2077456",
    "Code": "AU",
    "Languages": "en-AU",
    "Name_EN": "Australia",
    "Name_FA": "استرالیا",
    "Name_AR": "استراليا",
    "CallingCode": "+61",
    "Latitude": -32.12214,
    "Longitude": 144.06238
  },
  {
    "Id": "3577279",
    "Code": "AW",
    "Languages": "nl-AW,pap,es,en",
    "Name_EN": "Aruba",
    "Name_FA": "اروبا",
    "Name_AR": "اروبا",
    "CallingCode": "+297",
    "Latitude": 0,
    "Longitude": 0
  },
  {
    "Id": "661882",
    "Code": "AX",
    "Languages": "sv-AX",
    "Name_EN": "Aland Islands",
    "Name_FA": "جزایر الاند",
    "Name_AR": "اولان",
    "CallingCode": "+358-18",
    "Latitude": 60.18775,
    "Longitude": 20.22067
  },
  {
    "Id": "587116",
    "Code": "AZ",
    "Languages": "az,ru,hy",
    "Name_EN": "Azerbaijan",
    "Name_FA": "جمهوری اذربایجان",
    "Name_AR": "اذربيجان",
    "CallingCode": "+994",
    "Latitude": 40.29774,
    "Longitude": 47.741
  },
  {
    "Id": "3277605",
    "Code": "BA",
    "Languages": "bs,hr-BA,sr-BA",
    "Name_EN": "Bosnia and Herzegovina",
    "Name_FA": "بوسنی و هرزگوین",
    "Name_AR": "البوسنة والهرسك",
    "CallingCode": "+387",
    "Latitude": 44.37367,
    "Longitude": 17.80226
  },
  {
    "Id": "3374084",
    "Code": "BB",
    "Languages": "en-BB",
    "Name_EN": "Barbados",
    "Name_FA": "باربادوس",
    "Name_AR": "بربادوس",
    "CallingCode": "+1-246",
    "Latitude": 13.18276,
    "Longitude": -59.57249
  },
  {
    "Id": "1210997",
    "Code": "BD",
    "Languages": "bn-BD,en",
    "Name_EN": "Bangladesh",
    "Name_FA": "بنگلادش",
    "Name_AR": "بنغلاديش",
    "CallingCode": "+880",
    "Latitude": 23.76342,
    "Longitude": 90.22242
  },
  {
    "Id": "2802361",
    "Code": "BE",
    "Languages": "nl-BE,fr-BE,de-BE",
    "Name_EN": "Belgium",
    "Name_FA": "بلژیک",
    "Name_AR": "بلجيكا",
    "CallingCode": "+32",
    "Latitude": 50.68457,
    "Longitude": 4.55115
  },
  {
    "Id": "2361809",
    "Code": "BF",
    "Languages": "fr-BF,mos",
    "Name_EN": "Burkina Faso",
    "Name_FA": "بورکینافاسو",
    "Name_AR": "بوركينا فاسو",
    "CallingCode": "+226",
    "Latitude": 12.34416,
    "Longitude": -1.62604
  },
  {
    "Id": "732800",
    "Code": "BG",
    "Languages": "bg,tr-BG,rom",
    "Name_EN": "Bulgaria",
    "Name_FA": "بلغارستان",
    "Name_AR": "بلغاريا",
    "CallingCode": "+359",
    "Latitude": 42.80262,
    "Longitude": 25.19081
  },
  {
    "Id": "290291",
    "Code": "BH",
    "Languages": "ar-BH,en,fa,ur",
    "Name_EN": "Bahrain",
    "Name_FA": "بحرین",
    "Name_AR": "البحرين",
    "CallingCode": "+973",
    "Latitude": 26.18187,
    "Longitude": 50.56845
  },
  {
    "Id": "433561",
    "Code": "BI",
    "Languages": "fr-BI,rn",
    "Name_EN": "Burundi",
    "Name_FA": "بوروندی",
    "Name_AR": "بوروندي",
    "CallingCode": "+257",
    "Latitude": -3.35301,
    "Longitude": 29.74574
  },
  {
    "Id": "2395170",
    "Code": "BJ",
    "Languages": "fr-BJ",
    "Name_EN": "Benin",
    "Name_FA": "بنین",
    "Name_AR": "بنين",
    "CallingCode": "+229",
    "Latitude": 8.09402,
    "Longitude": 2.22283
  },
  {
    "Id": "3578476",
    "Code": "BL",
    "Languages": "fr",
    "Name_EN": "Saint Barthelemy",
    "Name_FA": "سن بارتلمی",
    "Name_AR": "سان بارتليمي",
    "CallingCode": "+590",
    "Latitude": 0,
    "Longitude": 0
  },
  {
    "Id": "3573345",
    "Code": "BM",
    "Languages": "en-BM,pt",
    "Name_EN": "Bermuda",
    "Name_FA": "برمودا",
    "Name_AR": "برمودا",
    "CallingCode": "+1-441",
    "Latitude": 32.30862,
    "Longitude": -64.78019
  },
  {
    "Id": "1820814",
    "Code": "BN",
    "Languages": "ms-BN,en-BN",
    "Name_EN": "Brunei",
    "Name_FA": "برونيی",
    "Name_AR": "بروناي",
    "CallingCode": "+673",
    "Latitude": 4.84361,
    "Longitude": 114.78496
  },
  {
    "Id": "3923057",
    "Code": "BO",
    "Languages": "es-BO,qu,ay",
    "Name_EN": "Bolivia",
    "Name_FA": "بولیوی",
    "Name_AR": "بوليفيا",
    "CallingCode": "+591",
    "Latitude": -17.92981,
    "Longitude": -65.31969
  },
  {
    "Id": "7626844",
    "Code": "BQ",
    "Languages": "nl,pap,en",
    "Name_EN": "Bonaire, Saint Eustatius and Saba ",
    "Name_FA": "جزایر کارايیب هلند",
    "Name_AR": "بونير وسينت اوستاتيوس وسابا",
    "CallingCode": "+599",
    "Latitude": 14.56205,
    "Longitude": -65.98436
  },
  {
    "Id": "3469034",
    "Code": "BR",
    "Languages": "pt-BR,es,en,fr",
    "Name_EN": "Brazil",
    "Name_FA": "برزیل",
    "Name_AR": "البرازيل",
    "CallingCode": "+55",
    "Latitude": -16.25851,
    "Longitude": -46.386
  },
  {
    "Id": "3572887",
    "Code": "BS",
    "Languages": "en-BS",
    "Name_EN": "Bahamas",
    "Name_FA": "باهاما",
    "Name_AR": "البهاما",
    "CallingCode": "+1-242",
    "Latitude": 24.75838,
    "Longitude": -76.51735
  },
  {
    "Id": "1252634",
    "Code": "BT",
    "Languages": "dz",
    "Name_EN": "Bhutan",
    "Name_FA": "بوتان",
    "Name_AR": "بوتان",
    "CallingCode": "+975",
    "Latitude": 27.2445,
    "Longitude": 90.38546
  },
  {
    "Id": "3371123",
    "Code": "BV",
    "Languages": "",
    "Name_EN": "Bouvet Island",
    "Name_FA": "جزیره بووت",
    "Name_AR": "جزيرة بوفيه",
    "CallingCode": "+",
    "Latitude": 0,
    "Longitude": 0
  },
  {
    "Id": "933860",
    "Code": "BW",
    "Languages": "en-BW,tn-BW",
    "Name_EN": "Botswana",
    "Name_FA": "بوتسوانا",
    "Name_AR": "بوتسوانا",
    "CallingCode": "+267",
    "Latitude": -22.89468,
    "Longitude": 25.81042
  },
  {
    "Id": "630336",
    "Code": "BY",
    "Languages": "be,ru",
    "Name_EN": "Belarus",
    "Name_FA": "بیلوروسی",
    "Name_AR": "بيلاروس",
    "CallingCode": "+375",
    "Latitude": 53.63527,
    "Longitude": 27.8415
  },
  {
    "Id": "3582678",
    "Code": "BZ",
    "Languages": "en-BZ,es",
    "Name_EN": "Belize",
    "Name_FA": "بلیز",
    "Name_AR": "بليز",
    "CallingCode": "+501",
    "Latitude": 17.35998,
    "Longitude": -88.64357
  },
  {
    "Id": "6251999",
    "Code": "CA",
    "Languages": "en-CA,fr-CA,iu",
    "Name_EN": "Canada",
    "Name_FA": "کانادا",
    "Name_AR": "كندا",
    "CallingCode": "+1",
    "Latitude": 47.82498,
    "Longitude": -86.24121
  },
  {
    "Id": "1547376",
    "Code": "CC",
    "Languages": "ms-CC,en",
    "Name_EN": "Cocos Islands",
    "Name_FA": "جزایر کوکوس",
    "Name_AR": "جزر كوكوس (كيلينغ)",
    "CallingCode": "+61",
    "Latitude": 0,
    "Longitude": 0
  },
  {
    "Id": "203312",
    "Code": "CD",
    "Languages": "fr-CD,ln,ktu,kg,sw,lua",
    "Name_EN": "Democratic Republic of the Congo",
    "Name_FA": "کنگو - کینشاسا",
    "Name_AR": "جمهورية الكونغو الديمقراطية",
    "CallingCode": "+243",
    "Latitude": -3.37208,
    "Longitude": 23.51435
  },
  {
    "Id": "239880",
    "Code": "CF",
    "Languages": "fr-CF,sg,ln,kg",
    "Name_EN": "Central African Republic",
    "Name_FA": "جمهوری افریقای مرکزی",
    "Name_AR": "جمهورية افريقيا الوسطى",
    "CallingCode": "+236",
    "Latitude": 5.64939,
    "Longitude": 19.09563
  },
  {
    "Id": "2260494",
    "Code": "CG",
    "Languages": "fr-CG,kg,ln-CG",
    "Name_EN": "Republic of the Congo",
    "Name_FA": "کنگو (جمهوری)",
    "Name_AR": "الكونغو",
    "CallingCode": "+242",
    "Latitude": -2.03533,
    "Longitude": 14.66538
  },
  {
    "Id": "2658434",
    "Code": "CH",
    "Languages": "de-CH,fr-CH,it-CH,rm",
    "Name_EN": "Switzerland",
    "Name_FA": "سويیس",
    "Name_AR": "سويسرا",
    "CallingCode": "+41",
    "Latitude": 47.06653,
    "Longitude": 8.1207
  },
  {
    "Id": "2287781",
    "Code": "CI",
    "Languages": "fr-CI",
    "Name_EN": "Ivory Coast",
    "Name_FA": "ساحل‌عاج",
    "Name_AR": "ساحل العاج",
    "CallingCode": "+225",
    "Latitude": 7.36496,
    "Longitude": -5.62383
  },
  {
    "Id": "1899402",
    "Code": "CK",
    "Languages": "en-CK,mi",
    "Name_EN": "Cook Islands",
    "Name_FA": "جزایر کوک",
    "Name_AR": "جزر كوك",
    "CallingCode": "+682",
    "Latitude": -21.2075,
    "Longitude": -159.77546
  },
  {
    "Id": "3895114",
    "Code": "CL",
    "Languages": "es-CL",
    "Name_EN": "Chile",
    "Name_FA": "شیلی",
    "Name_AR": "تشيلي",
    "CallingCode": "+56",
    "Latitude": -34.93106,
    "Longitude": -71.91
  },
  {
    "Id": "2233387",
    "Code": "CM",
    "Languages": "en-CM,fr-CM",
    "Name_EN": "Cameroon",
    "Name_FA": "کامرون",
    "Name_AR": "الكاميرون",
    "CallingCode": "+237",
    "Latitude": 5.75974,
    "Longitude": 11.54798
  },
  {
    "Id": "1814991",
    "Code": "CN",
    "Languages": "zh-CN,yue,wuu,dta,ug,za",
    "Name_EN": "China",
    "Name_FA": "چین",
    "Name_AR": "الصين",
    "CallingCode": "+86",
    "Latitude": 31.91228,
    "Longitude": 112.95862
  },
  {
    "Id": "3686110",
    "Code": "CO",
    "Languages": "es-CO",
    "Name_EN": "Colombia",
    "Name_FA": "کلمبیا",
    "Name_AR": "كولومبيا",
    "CallingCode": "+57",
    "Latitude": 5.66353,
    "Longitude": -74.74033
  },
  {
    "Id": "3624060",
    "Code": "CR",
    "Languages": "es-CR,en",
    "Name_EN": "Costa Rica",
    "Name_FA": "کاستاریکا",
    "Name_AR": "كوستاريكا",
    "CallingCode": "+506",
    "Latitude": 9.97042,
    "Longitude": -84.22177
  },
  {
    "Id": "3562981",
    "Code": "CU",
    "Languages": "es-CU,pap",
    "Name_EN": "Cuba",
    "Name_FA": "کوبا",
    "Name_AR": "كوبا",
    "CallingCode": "+53",
    "Latitude": 22.08274,
    "Longitude": -79.92842
  },
  {
    "Id": "3374766",
    "Code": "CV",
    "Languages": "pt-CV",
    "Name_EN": "Cabo Verde",
    "Name_FA": "کیپ‌ورد",
    "Name_AR": "الراس الاخضر",
    "CallingCode": "+238",
    "Latitude": 15.75374,
    "Longitude": -23.98779
  },
  {
    "Id": "7626836",
    "Code": "CW",
    "Languages": "nl,pap",
    "Name_EN": "Curacao",
    "Name_FA": "کوراسايو",
    "Name_AR": "كوراساو",
    "CallingCode": "+599",
    "Latitude": 0,
    "Longitude": 0
  },
  {
    "Id": "2078138",
    "Code": "CX",
    "Languages": "en,zh,ms-CX",
    "Name_EN": "Christmas Island",
    "Name_FA": "جزیره کریسمس",
    "Name_AR": "جزيرة كريسماس",
    "CallingCode": "+61",
    "Latitude": 0,
    "Longitude": 0
  },
  {
    "Id": "146669",
    "Code": "CY",
    "Languages": "el-CY,tr-CY,en",
    "Name_EN": "Cyprus",
    "Name_FA": "قبرس",
    "Name_AR": "قبرص",
    "CallingCode": "+357",
    "Latitude": 34.95304,
    "Longitude": 33.17255
  },
  {
    "Id": "3077311",
    "Code": "CZ",
    "Languages": "cs,sk",
    "Name_EN": "Czechia",
    "Name_FA": "چک",
    "Name_AR": "التشيك",
    "CallingCode": "+420",
    "Latitude": 49.75854,
    "Longitude": 15.65876
  },
  {
    "Id": "2921044",
    "Code": "DE",
    "Languages": "de",
    "Name_EN": "Germany",
    "Name_FA": "المان",
    "Name_AR": "المانيا",
    "CallingCode": "+49",
    "Latitude": 50.90244,
    "Longitude": 9.96417
  },
  {
    "Id": "223816",
    "Code": "DJ",
    "Languages": "fr-DJ,ar,so-DJ,aa",
    "Name_EN": "Djibouti",
    "Name_FA": "جیبوتی",
    "Name_AR": "جيبوتي",
    "CallingCode": "+253",
    "Latitude": 11.59807,
    "Longitude": 42.75852
  },
  {
    "Id": "2623032",
    "Code": "DK",
    "Languages": "da-DK,en,fo,de-DK",
    "Name_EN": "Denmark",
    "Name_FA": "دانمارک",
    "Name_AR": "الدانمرك",
    "CallingCode": "+45",
    "Latitude": 55.8535,
    "Longitude": 10.68865
  },
  {
    "Id": "3575830",
    "Code": "DM",
    "Languages": "en-DM",
    "Name_EN": "Dominica",
    "Name_FA": "دومینیک",
    "Name_AR": "دومينيكا",
    "CallingCode": "+1-767",
    "Latitude": 15.42023,
    "Longitude": -61.3575
  },
  {
    "Id": "3508796",
    "Code": "DO",
    "Languages": "es-DO",
    "Name_EN": "Dominican Republic",
    "Name_FA": "جمهوری دومینیکن",
    "Name_AR": "الجمهورية الدومينيكية",
    "CallingCode": "+1-809 and 1-829",
    "Latitude": 18.93777,
    "Longitude": -70.55577
  },
  {
    "Id": "2589581",
    "Code": "DZ",
    "Languages": "ar-DZ",
    "Name_EN": "Algeria",
    "Name_FA": "الجزایر",
    "Name_AR": "الجزاير",
    "CallingCode": "+213",
    "Latitude": 34.82336,
    "Longitude": 3.26507
  },
  {
    "Id": "3658394",
    "Code": "EC",
    "Languages": "es-EC",
    "Name_EN": "Ecuador",
    "Name_FA": "اکوادور",
    "Name_AR": "اكوادور",
    "CallingCode": "+593",
    "Latitude": -1.47644,
    "Longitude": -79.10937
  },
  {
    "Id": "453733",
    "Code": "EE",
    "Languages": "et,ru",
    "Name_EN": "Estonia",
    "Name_FA": "استونی",
    "Name_AR": "استونيا",
    "CallingCode": "+372",
    "Latitude": 58.8048,
    "Longitude": 25.52085
  },
  {
    "Id": "357994",
    "Code": "EG",
    "Languages": "ar-EG,en,fr",
    "Name_EN": "Egypt",
    "Name_FA": "مصر",
    "Name_AR": "مصر",
    "CallingCode": "+20",
    "Latitude": 29.33955,
    "Longitude": 31.41419
  },
  {
    "Id": "2461445",
    "Code": "EH",
    "Languages": "ar,mey",
    "Name_EN": "Western Sahara",
    "Name_FA": "صحرای غربی",
    "Name_AR": "لصحراء الغربية",
    "CallingCode": "+212",
    "Latitude": 0,
    "Longitude": 0
  },
  {
    "Id": "338010",
    "Code": "ER",
    "Languages": "aa-ER,ar,tig,kun,ti-ER",
    "Name_EN": "Eritrea",
    "Name_FA": "اریتره",
    "Name_AR": "ارتيريا",
    "CallingCode": "+291",
    "Latitude": 14.9611,
    "Longitude": 38.96868
  },
  {
    "Id": "2510769",
    "Code": "ES",
    "Languages": "es-ES,ca,gl,eu,oc",
    "Name_EN": "Spain",
    "Name_FA": "اسپانیا",
    "Name_AR": "اسبانيا",
    "CallingCode": "+34",
    "Latitude": 40.54005,
    "Longitude": -3.22347
  },
  {
    "Id": "337996",
    "Code": "ET",
    "Languages": "am,en-ET,om-ET,ti-ET,so-ET,sid",
    "Name_EN": "Ethiopia",
    "Name_FA": "اتیوپی",
    "Name_AR": "اثيوبيا",
    "CallingCode": "+251",
    "Latitude": 9.1511,
    "Longitude": 38.90441
  },
  {
    "Id": "660013",
    "Code": "FI",
    "Languages": "fi-FI,sv-FI,smn",
    "Name_EN": "Finland",
    "Name_FA": "فنلاند",
    "Name_AR": "فنلندا",
    "CallingCode": "+358",
    "Latitude": 61.77545,
    "Longitude": 24.86579
  },
  {
    "Id": "2205218",
    "Code": "FJ",
    "Languages": "en-FJ,fj",
    "Name_EN": "Fiji",
    "Name_FA": "فیجی",
    "Name_AR": "فيجي",
    "CallingCode": "+679",
    "Latitude": -17.2541,
    "Longitude": 142.39049
  },
  {
    "Id": "3474414",
    "Code": "FK",
    "Languages": "en-FK",
    "Name_EN": "Falkland Islands",
    "Name_FA": "جزایر فالکلند",
    "Name_AR": "جزر فوكلاند",
    "CallingCode": "+500",
    "Latitude": 0,
    "Longitude": 0
  },
  {
    "Id": "2081918",
    "Code": "FM",
    "Languages": "en-FM,chk,pon,yap,kos,uli,woe,nkr,kpg",
    "Name_EN": "Micronesia",
    "Name_FA": "میکرونزی",
    "Name_AR": "ميكرونيزيا",
    "CallingCode": "+691",
    "Latitude": 6.91256,
    "Longitude": 151.78544
  },
  {
    "Id": "2622320",
    "Code": "FO",
    "Languages": "fo,da-FO",
    "Name_EN": "Faroe Islands",
    "Name_FA": "جزایر فارو",
    "Name_AR": "جزر فارو",
    "CallingCode": "+298",
    "Latitude": 62.01028,
    "Longitude": -6.81855
  },
  {
    "Id": "3017382",
    "Code": "FR",
    "Languages": "fr-FR,frp,br,co,ca,eu,oc",
    "Name_EN": "France",
    "Name_FA": "فرانسه",
    "Name_AR": "فرنسا",
    "CallingCode": "+33",
    "Latitude": 47.03931,
    "Longitude": 2.48632
  },
  {
    "Id": "2400553",
    "Code": "GA",
    "Languages": "fr-GA",
    "Name_EN": "Gabon",
    "Name_FA": "گابون",
    "Name_AR": "غابون",
    "CallingCode": "+241",
    "Latitude": -0.81409,
    "Longitude": 11.72922
  },
  {
    "Id": "2635167",
    "Code": "GB",
    "Languages": "en-GB,cy-GB,gd",
    "Name_EN": "United Kingdom",
    "Name_FA": "بریتانیا",
    "Name_AR": "المملكة المتحدة",
    "CallingCode": "+44",
    "Latitude": 52.83365,
    "Longitude": -1.81178
  },
  {
    "Id": "3580239",
    "Code": "GD",
    "Languages": "en-GD",
    "Name_EN": "Grenada",
    "Name_FA": "گرانادا",
    "Name_AR": "غرينادا",
    "CallingCode": "+1-473",
    "Latitude": 12.17787,
    "Longitude": -61.65575
  },
  {
    "Id": "614540",
    "Code": "GE",
    "Languages": "ka,ru,hy,az",
    "Name_EN": "Georgia",
    "Name_FA": "گرجستان",
    "Name_AR": "جورجيا",
    "CallingCode": "+995",
    "Latitude": 42.09441,
    "Longitude": 43.20005
  },
  {
    "Id": "3381670",
    "Code": "GF",
    "Languages": "fr-GF",
    "Name_EN": "French Guiana",
    "Name_FA": "گویان فرانسه",
    "Name_AR": "غويانا الفرنسية",
    "CallingCode": "+594",
    "Latitude": 4.82151,
    "Longitude": -52.94322
  },
  {
    "Id": "3042362",
    "Code": "GG",
    "Languages": "en,nrf",
    "Name_EN": "Guernsey",
    "Name_FA": "گرنزی",
    "Name_AR": "غيرنزي",
    "CallingCode": "+44-1481",
    "Latitude": 49.48726,
    "Longitude": -2.53589
  },
  {
    "Id": "2300660",
    "Code": "GH",
    "Languages": "en-GH,ak,ee,tw",
    "Name_EN": "Ghana",
    "Name_FA": "غنا",
    "Name_AR": "غانا",
    "CallingCode": "+233",
    "Latitude": 6.67307,
    "Longitude": -0.9914
  },
  {
    "Id": "2411586",
    "Code": "GI",
    "Languages": "en-GI,es,it,pt",
    "Name_EN": "Gibraltar",
    "Name_FA": "جبل طارق",
    "Name_AR": "مستعمرة جبل طارق",
    "CallingCode": "+350",
    "Latitude": 0,
    "Longitude": 0
  },
  {
    "Id": "3425505",
    "Code": "GL",
    "Languages": "kl,da-GL,en",
    "Name_EN": "Greenland",
    "Name_FA": "گروينلند",
    "Name_AR": "غرينلاند",
    "CallingCode": "+299",
    "Latitude": 66.58616,
    "Longitude": -51.15265
  },
  {
    "Id": "2413451",
    "Code": "GM",
    "Languages": "en-GM,mnk,wof,wo,ff",
    "Name_EN": "Gambia",
    "Name_FA": "گامبیا",
    "Name_AR": "غامبيا",
    "CallingCode": "+220",
    "Latitude": 13.439,
    "Longitude": -15.53801
  },
  {
    "Id": "2420477",
    "Code": "GN",
    "Languages": "fr-GN",
    "Name_EN": "Guinea",
    "Name_FA": "گینه",
    "Name_AR": "غينيا",
    "CallingCode": "+224",
    "Latitude": 10.59074,
    "Longitude": -11.12141
  },
  {
    "Id": "3579143",
    "Code": "GP",
    "Languages": "fr-GP",
    "Name_EN": "Guadeloupe",
    "Name_FA": "گوادلوپ",
    "Name_AR": "غوادلوب",
    "CallingCode": "+590",
    "Latitude": 16.17495,
    "Longitude": -61.56004
  },
  {
    "Id": "2309096",
    "Code": "GQ",
    "Languages": "es-GQ,fr,pt",
    "Name_EN": "Equatorial Guinea",
    "Name_FA": "گینه استوایی",
    "Name_AR": "غينيا الاستوايية",
    "CallingCode": "+240",
    "Latitude": 1.86733,
    "Longitude": 9.74305
  },
  {
    "Id": "390903",
    "Code": "GR",
    "Languages": "el-GR,en,fr",
    "Name_EN": "Greece",
    "Name_FA": "یونان",
    "Name_AR": "اليونان",
    "CallingCode": "+30",
    "Latitude": 38.9907,
    "Longitude": 23.00611
  },
  {
    "Id": "3474415",
    "Code": "GS",
    "Languages": "en",
    "Name_EN": "South Georgia and the South Sandwich Islands",
    "Name_FA": "جورجیای جنوبی و جزایر ساندویچ جنوبی",
    "Name_AR": "جورجيا الجنوبية وجزر ساندويتش الجنوبية",
    "CallingCode": "+",
    "Latitude": 0,
    "Longitude": 0
  },
  {
    "Id": "3595528",
    "Code": "GT",
    "Languages": "es-GT",
    "Name_EN": "Guatemala",
    "Name_FA": "گواتمالا",
    "Name_AR": "غواتيمالا",
    "CallingCode": "+502",
    "Latitude": 14.91933,
    "Longitude": -90.85062
  },
  {
    "Id": "4043988",
    "Code": "GU",
    "Languages": "en-GU,ch-GU",
    "Name_EN": "Guam",
    "Name_FA": "گوام",
    "Name_AR": "غوام",
    "CallingCode": "+1-671",
    "Latitude": 13.44544,
    "Longitude": 144.76248
  },
  {
    "Id": "2372248",
    "Code": "GW",
    "Languages": "pt-GW,pov",
    "Name_EN": "Guinea-Bissau",
    "Name_FA": "گینه بیسايو",
    "Name_AR": "غينيا بيساو",
    "CallingCode": "+245",
    "Latitude": 12.00351,
    "Longitude": -15.27594
  },
  {
    "Id": "3378535",
    "Code": "GY",
    "Languages": "en-GY",
    "Name_EN": "Guyana",
    "Name_FA": "گویان",
    "Name_AR": "غوايانا",
    "CallingCode": "+592",
    "Latitude": 6.35637,
    "Longitude": -58.27317
  },
  {
    "Id": "1819730",
    "Code": "HK",
    "Languages": "zh-HK,yue,zh,en",
    "Name_EN": "Hong Kong",
    "Name_FA": "هنگ‌کنگ",
    "Name_AR": "هونغ كونغ",
    "CallingCode": "+852",
    "Latitude": 22.32484,
    "Longitude": 114.16516
  },
  {
    "Id": "1547314",
    "Code": "HM",
    "Languages": "",
    "Name_EN": "Heard Island and McDonald Islands",
    "Name_FA": "هرد و جزایر مک‌دونالد",
    "Name_AR": "جزيرة هيرد وجزر ماكدونالد",
    "CallingCode": "+ ",
    "Latitude": 0,
    "Longitude": 0
  },
  {
    "Id": "3608932",
    "Code": "HN",
    "Languages": "es-HN,cab,miq",
    "Name_EN": "Honduras",
    "Name_FA": "هندوراس",
    "Name_AR": "هندوراس",
    "CallingCode": "+504",
    "Latitude": 14.81408,
    "Longitude": -87.51778
  },
  {
    "Id": "3202326",
    "Code": "HR",
    "Languages": "hr-HR,sr",
    "Name_EN": "Croatia",
    "Name_FA": "کرواسی",
    "Name_AR": "كرواتيا",
    "CallingCode": "+385",
    "Latitude": 45.21501,
    "Longitude": 16.44222
  },
  {
    "Id": "3723988",
    "Code": "HT",
    "Languages": "ht,fr-HT",
    "Name_EN": "Haiti",
    "Name_FA": "هاییتی",
    "Name_AR": "هايتي",
    "CallingCode": "+509",
    "Latitude": 18.98802,
    "Longitude": -72.75296
  },
  {
    "Id": "719819",
    "Code": "HU",
    "Languages": "hu-HU",
    "Name_EN": "Hungary",
    "Name_FA": "مجارستان",
    "Name_AR": "هنغاريا",
    "CallingCode": "+36",
    "Latitude": 47.30735,
    "Longitude": 19.52631
  },
  {
    "Id": "1643084",
    "Code": "ID",
    "Languages": "id,en,nl,jv",
    "Name_EN": "Indonesia",
    "Name_FA": "اندونزی",
    "Name_AR": "اندونيسيا",
    "CallingCode": "+62",
    "Latitude": -6.86879,
    "Longitude": 112.92478
  },
  {
    "Id": "2963597",
    "Code": "IE",
    "Languages": "en-IE,ga-IE",
    "Name_EN": "Ireland",
    "Name_FA": "ایرلند",
    "Name_AR": "ايرلندا",
    "CallingCode": "+353",
    "Latitude": 53.14511,
    "Longitude": -7.58381
  },
  {
    "Id": "294640",
    "Code": "IL",
    "Languages": "he,ar-IL,en-IL,",
    "Name_EN": "Israel",
    "Name_FA": "اسرايیل",
    "Name_AR": "اسراييل",
    "CallingCode": "+972",
    "Latitude": 32.25933,
    "Longitude": 35.0521
  },
  {
    "Id": "3042225",
    "Code": "IM",
    "Languages": "en,gv",
    "Name_EN": "Isle of Man",
    "Name_FA": "جزیره من",
    "Name_AR": "جزيرة مان",
    "CallingCode": "+44-1624",
    "Latitude": 54.21525,
    "Longitude": -4.54483
  },
  {
    "Id": "1269750",
    "Code": "IN",
    "Languages": "en-IN,hi,bn,te,mr,ta,ur,gu,kn,ml,or,pa,as,bh,sat,ks,ne,sd,kok,doi,mni,sit,sa,fr,lus,inc",
    "Name_EN": "India",
    "Name_FA": "هند",
    "Name_AR": "الهند",
    "CallingCode": "+91",
    "Latitude": 21.22481,
    "Longitude": 79.14081
  },
  {
    "Id": "1282588",
    "Code": "IO",
    "Languages": "en-IO",
    "Name_EN": "British Indian Ocean Territory",
    "Name_FA": "مستعمره‌های بریتانیا در اقیانوس هند",
    "Name_AR": "الاقليم البريطاني في المحيط الهندي",
    "CallingCode": "+246",
    "Latitude": 0,
    "Longitude": 0
  },
  {
    "Id": "99237",
    "Code": "IQ",
    "Languages": "ar-IQ,ku,hy",
    "Name_EN": "Iraq",
    "Name_FA": "عراق",
    "Name_AR": "العراق",
    "CallingCode": "+964",
    "Latitude": 34.2486,
    "Longitude": 44.55443
  },
  {
    "Id": "130758",
    "Code": "IR",
    "Languages": "fa-IR,ku",
    "Name_EN": "Iran",
    "Name_FA": "ایران",
    "Name_AR": "ايران",
    "CallingCode": "+98",
    "Latitude": 33.49114,
    "Longitude": 51.91407
  },
  {
    "Id": "2629691",
    "Code": "IS",
    "Languages": "is,en,de,da,sv,no",
    "Name_EN": "Iceland",
    "Name_FA": "ایسلند",
    "Name_AR": "ايسلندا",
    "CallingCode": "+354",
    "Latitude": 64.70911,
    "Longitude": -20.18913
  },
  {
    "Id": "3175395",
    "Code": "IT",
    "Languages": "it-IT,de-IT,fr-IT,sc,ca,co,sl",
    "Name_EN": "Italy",
    "Name_FA": "ایتالیا",
    "Name_AR": "ايطاليا",
    "CallingCode": "+39",
    "Latitude": 43.43821,
    "Longitude": 11.6867
  },
  {
    "Id": "3042142",
    "Code": "JE",
    "Languages": "en,fr,nrf",
    "Name_EN": "Jersey",
    "Name_FA": "جرزی",
    "Name_AR": "جيرسي",
    "CallingCode": "+44-1534",
    "Latitude": 49.20898,
    "Longitude": -2.09951
  },
  {
    "Id": "3489940",
    "Code": "JM",
    "Languages": "en-JM",
    "Name_EN": "Jamaica",
    "Name_FA": "جامايیکا",
    "Name_AR": "جامايكا",
    "CallingCode": "+1-876",
    "Latitude": 18.14214,
    "Longitude": -77.23366
  },
  {
    "Id": "248816",
    "Code": "JO",
    "Languages": "ar-JO,en",
    "Name_EN": "Jordan",
    "Name_FA": "اردن",
    "Name_AR": "الاردن",
    "CallingCode": "+962",
    "Latitude": 31.87584,
    "Longitude": 35.89198
  },
  {
    "Id": "1861060",
    "Code": "JP",
    "Languages": "ja",
    "Name_EN": "Japan",
    "Name_FA": "ژاپن",
    "Name_AR": "اليابان",
    "CallingCode": "+81",
    "Latitude": 35.89906,
    "Longitude": 137.11904
  },
  {
    "Id": "192950",
    "Code": "KE",
    "Languages": "en-KE,sw-KE",
    "Name_EN": "Kenya",
    "Name_FA": "کنیا",
    "Name_AR": "كينيا",
    "CallingCode": "+254",
    "Latitude": -0.59082,
    "Longitude": 36.70274
  },
  {
    "Id": "1527747",
    "Code": "KG",
    "Languages": "ky,uz,ru",
    "Name_EN": "Kyrgyzstan",
    "Name_FA": "قرقیزستان",
    "Name_AR": "قيرغيزستان",
    "CallingCode": "+996",
    "Latitude": 41.2114,
    "Longitude": 73.02598
  },
  {
    "Id": "1831722",
    "Code": "KH",
    "Languages": "km,fr,en",
    "Name_EN": "Cambodia",
    "Name_FA": "کامبوج",
    "Name_AR": "كمبوديا",
    "CallingCode": "+855",
    "Latitude": 12.54862,
    "Longitude": 105.05526
  },
  {
    "Id": "4030945",
    "Code": "KI",
    "Languages": "en-KI,gil",
    "Name_EN": "Kiribati",
    "Name_FA": "کیریباتی",
    "Name_AR": "كيريباتي",
    "CallingCode": "+686",
    "Latitude": 0.96824,
    "Longitude": 128.89527
  },
  {
    "Id": "921929",
    "Code": "KM",
    "Languages": "ar,fr-KM",
    "Name_EN": "Comoros",
    "Name_FA": "کومورو",
    "Name_AR": "جزر القمر",
    "CallingCode": "+269",
    "Latitude": -11.93758,
    "Longitude": 43.78528
  },
  {
    "Id": "3575174",
    "Code": "KN",
    "Languages": "en-KN",
    "Name_EN": "Saint Kitts and Nevis",
    "Name_FA": "سنت کیتس و نویس",
    "Name_AR": "سانت كيتس ونيفيس",
    "CallingCode": "+1-869",
    "Latitude": 17.29556,
    "Longitude": -62.73006
  },
  {
    "Id": "1873107",
    "Code": "KP",
    "Languages": "ko-KP",
    "Name_EN": "North Korea",
    "Name_FA": "کره شمالی",
    "Name_AR": "كوريا الشمالية",
    "CallingCode": "+850",
    "Latitude": 40.13224,
    "Longitude": 127.20309
  },
  {
    "Id": "1835841",
    "Code": "KR",
    "Languages": "ko-KR,en",
    "Name_EN": "South Korea",
    "Name_FA": "کره جنوبی",
    "Name_AR": "كوريا الجنوبية",
    "CallingCode": "+82",
    "Latitude": 36.14665,
    "Longitude": 127.45405
  },
  {
    "Id": "831053",
    "Code": "XK",
    "Languages": "sq,sr",
    "Name_EN": "Kosovo",
    "Name_FA": "کوزوو",
    "Name_AR": "كوسوفو",
    "CallingCode": "+",
    "Latitude": 42.52678,
    "Longitude": 20.76287
  },
  {
    "Id": "285570",
    "Code": "KW",
    "Languages": "ar-KW,en",
    "Name_EN": "Kuwait",
    "Name_FA": "کویت",
    "Name_AR": "الكويت",
    "CallingCode": "+965",
    "Latitude": 29.26233,
    "Longitude": 48.03289
  },
  {
    "Id": "3580718",
    "Code": "KY",
    "Languages": "en-KY",
    "Name_EN": "Cayman Islands",
    "Name_FA": "جزایر کیمن",
    "Name_AR": "جزر الكايمن",
    "CallingCode": "+1-345",
    "Latitude": 19.37627,
    "Longitude": -81.07606
  },
  {
    "Id": "1522867",
    "Code": "KZ",
    "Languages": "kk,ru",
    "Name_EN": "Kazakhstan",
    "Name_FA": "قزاقستان",
    "Name_AR": "كازاخستان",
    "CallingCode": "+7",
    "Latitude": 48.3951,
    "Longitude": 69.08896
  },
  {
    "Id": "1655842",
    "Code": "LA",
    "Languages": "lo,fr,en",
    "Name_EN": "Laos",
    "Name_FA": "لايوس",
    "Name_AR": "لاوس",
    "CallingCode": "+856",
    "Latitude": 18.06226,
    "Longitude": 104.05017
  },
  {
    "Id": "272103",
    "Code": "LB",
    "Languages": "ar-LB,fr-LB,en,hy",
    "Name_EN": "Lebanon",
    "Name_FA": "لبنان",
    "Name_AR": "لبنان",
    "CallingCode": "+961",
    "Latitude": 33.75955,
    "Longitude": 35.64219
  },
  {
    "Id": "3576468",
    "Code": "LC",
    "Languages": "en-LC",
    "Name_EN": "Saint Lucia",
    "Name_FA": "سنت لوسیا",
    "Name_AR": "سانت لوسيا",
    "CallingCode": "+1-758",
    "Latitude": 13.92397,
    "Longitude": -60.96327
  },
  {
    "Id": "3042058",
    "Code": "LI",
    "Languages": "de-LI",
    "Name_EN": "Liechtenstein",
    "Name_FA": "لیختن‌اشتاین",
    "Name_AR": "ليختنشتاين",
    "CallingCode": "+423",
    "Latitude": 47.17507,
    "Longitude": 9.52818
  },
  {
    "Id": "1227603",
    "Code": "LK",
    "Languages": "si,ta,en",
    "Name_EN": "Sri Lanka",
    "Name_FA": "سری‌لانکا",
    "Name_AR": "سري لانكا",
    "CallingCode": "+94",
    "Latitude": 7.16357,
    "Longitude": 80.39957
  },
  {
    "Id": "2275384",
    "Code": "LR",
    "Languages": "en-LR",
    "Name_EN": "Liberia",
    "Name_FA": "لیبریا",
    "Name_AR": "ليبيريا",
    "CallingCode": "+231",
    "Latitude": 6.47322,
    "Longitude": -9.26187
  },
  {
    "Id": "932692",
    "Code": "LS",
    "Languages": "en-LS,st,zu,xh",
    "Name_EN": "Lesotho",
    "Name_FA": "لسوتو",
    "Name_AR": "ليسوتو",
    "CallingCode": "+266",
    "Latitude": -29.5493,
    "Longitude": 27.99638
  },
  {
    "Id": "597427",
    "Code": "LT",
    "Languages": "lt,ru,pl",
    "Name_EN": "Lithuania",
    "Name_FA": "لیتوانی",
    "Name_AR": "ليتوانيا",
    "CallingCode": "+370",
    "Latitude": 55.19837,
    "Longitude": 23.87225
  },
  {
    "Id": "2960313",
    "Code": "LU",
    "Languages": "lb,de-LU,fr-LU",
    "Name_EN": "Luxembourg",
    "Name_FA": "لوکزامبورگ",
    "Name_AR": "لوكسومبرغ",
    "CallingCode": "+352",
    "Latitude": 49.68591,
    "Longitude": 6.12042
  },
  {
    "Id": "458258",
    "Code": "LV",
    "Languages": "lv,ru,lt",
    "Name_EN": "Latvia",
    "Name_FA": "لتونی",
    "Name_AR": "لاتفيا",
    "CallingCode": "+371",
    "Latitude": 56.89367,
    "Longitude": 24.48457
  },
  {
    "Id": "2215636",
    "Code": "LY",
    "Languages": "ar-LY,it,en",
    "Name_EN": "Libya",
    "Name_FA": "لیبی",
    "Name_AR": "ليبيا",
    "CallingCode": "+218",
    "Latitude": 30.86691,
    "Longitude": 16.00602
  },
  {
    "Id": "2542007",
    "Code": "MA",
    "Languages": "ar-MA,ber,fr",
    "Name_EN": "Morocco",
    "Name_FA": "مراکش",
    "Name_AR": "المغرب",
    "CallingCode": "+212",
    "Latitude": 32.86905,
    "Longitude": -6.34916
  },
  {
    "Id": "2993457",
    "Code": "MC",
    "Languages": "fr-MC,en,it",
    "Name_EN": "Monaco",
    "Name_FA": "موناکو",
    "Name_AR": "موناكو",
    "CallingCode": "+377",
    "Latitude": 43.73731,
    "Longitude": 7.42289
  },
  {
    "Id": "617790",
    "Code": "MD",
    "Languages": "ro,ru,gag,tr",
    "Name_EN": "Moldova",
    "Name_FA": "مولدووا",
    "Name_AR": "مولدوفا",
    "CallingCode": "+373",
    "Latitude": 47.14802,
    "Longitude": 28.62466
  },
  {
    "Id": "3194884",
    "Code": "ME",
    "Languages": "sr,hu,bs,sq,hr,rom",
    "Name_EN": "Montenegro",
    "Name_FA": "مونته‌نگرو",
    "Name_AR": "الجبل الاسود",
    "CallingCode": "+382",
    "Latitude": 42.54624,
    "Longitude": 19.14003
  },
  {
    "Id": "3578421",
    "Code": "MF",
    "Languages": "fr",
    "Name_EN": "Saint Martin",
    "Name_FA": "سنت مارتین",
    "Name_AR": "سان مارتن",
    "CallingCode": "+590",
    "Latitude": 0,
    "Longitude": 0
  },
  {
    "Id": "1062947",
    "Code": "MG",
    "Languages": "fr-MG,mg",
    "Name_EN": "Madagascar",
    "Name_FA": "ماداگاسکار",
    "Name_AR": "مدغشقر",
    "CallingCode": "+261",
    "Latitude": -19.31038,
    "Longitude": 47.32086
  },
  {
    "Id": "2080185",
    "Code": "MH",
    "Languages": "mh,en-MH",
    "Name_EN": "Marshall Islands",
    "Name_FA": "جزایر مارشال",
    "Name_AR": "جزر مارشال",
    "CallingCode": "+692",
    "Latitude": 8.34365,
    "Longitude": 168.80331
  },
  {
    "Id": "718075",
    "Code": "MK",
    "Languages": "mk,sq,tr,rmm,sr",
    "Name_EN": "North Macedonia",
    "Name_FA": "مقدونیه",
    "Name_AR": "مقدونيا الشمالية",
    "CallingCode": "+389",
    "Latitude": 41.6115,
    "Longitude": 21.49489
  },
  {
    "Id": "2453866",
    "Code": "ML",
    "Languages": "fr-ML,bm",
    "Name_EN": "Mali",
    "Name_FA": "مالی",
    "Name_AR": "مالي",
    "CallingCode": "+223",
    "Latitude": 14.00871,
    "Longitude": -5.62686
  },
  {
    "Id": "1327865",
    "Code": "MM",
    "Languages": "my",
    "Name_EN": "Myanmar",
    "Name_FA": "میانمار",
    "Name_AR": "ميانمار (بورما)",
    "CallingCode": "+95",
    "Latitude": 19.15561,
    "Longitude": 96.36513
  },
  {
    "Id": "2029969",
    "Code": "MN",
    "Languages": "mn,ru",
    "Name_EN": "Mongolia",
    "Name_FA": "مغولستان",
    "Name_AR": "منغوليا",
    "CallingCode": "+976",
    "Latitude": 47.47997,
    "Longitude": 102.38627
  },
  {
    "Id": "1821275",
    "Code": "MO",
    "Languages": "zh,zh-MO,pt",
    "Name_EN": "Macao",
    "Name_FA": "ماکايو",
    "Name_AR": "ماكاو",
    "CallingCode": "+853",
    "Latitude": 22.13761,
    "Longitude": 113.55955
  },
  {
    "Id": "4041468",
    "Code": "MP",
    "Languages": "fil,tl,zh,ch-MP,en-MP",
    "Name_EN": "Northern Mariana Islands",
    "Name_FA": "جزایر ماریانای شمالی",
    "Name_AR": "جزر ماريانا الشمالية",
    "CallingCode": "+1-670",
    "Latitude": 15.14794,
    "Longitude": 145.71243
  },
  {
    "Id": "3570311",
    "Code": "MQ",
    "Languages": "fr-MQ",
    "Name_EN": "Martinique",
    "Name_FA": "مارتینیک",
    "Name_AR": "جزر المارتينيك",
    "CallingCode": "+596",
    "Latitude": 14.66242,
    "Longitude": -61.01205
  },
  {
    "Id": "2378080",
    "Code": "MR",
    "Languages": "ar-MR,fuc,snk,fr,mey,wo",
    "Name_EN": "Mauritania",
    "Name_FA": "موریتانی",
    "Name_AR": "موريتانيا",
    "CallingCode": "+222",
    "Latitude": 17.41574,
    "Longitude": -12.48872
  },
  {
    "Id": "3578097",
    "Code": "MS",
    "Languages": "en-MS",
    "Name_EN": "Montserrat",
    "Name_FA": "مونت‌سرات",
    "Name_AR": "مونتسرات",
    "CallingCode": "+1-664",
    "Latitude": 16.7554,
    "Longitude": -62.21207
  },
  {
    "Id": "2562770",
    "Code": "MT",
    "Languages": "mt,en-MT",
    "Name_EN": "Malta",
    "Name_FA": "مالت",
    "Name_AR": "مالطة",
    "CallingCode": "+356",
    "Latitude": 35.91881,
    "Longitude": 14.42702
  },
  {
    "Id": "934292",
    "Code": "MU",
    "Languages": "en-MU,bho,fr",
    "Name_EN": "Mauritius",
    "Name_FA": "موریتیوس",
    "Name_AR": "موريشوس",
    "CallingCode": "+230",
    "Latitude": -20.09797,
    "Longitude": 57.70364
  },
  {
    "Id": "1282028",
    "Code": "MV",
    "Languages": "dv,en",
    "Name_EN": "Maldives",
    "Name_FA": "مالدیو",
    "Name_AR": "مالديف",
    "CallingCode": "+960",
    "Latitude": 3.11852,
    "Longitude": 73.27605
  },
  {
    "Id": "927384",
    "Code": "MW",
    "Languages": "ny,yao,tum,swk",
    "Name_EN": "Malawi",
    "Name_FA": "مالاوی",
    "Name_AR": "ملاوي",
    "CallingCode": "+265",
    "Latitude": -14.0495,
    "Longitude": 34.51627
  },
  {
    "Id": "3996063",
    "Code": "MX",
    "Languages": "es-MX",
    "Name_EN": "Mexico",
    "Name_FA": "مکزیک",
    "Name_AR": "المكسيك",
    "CallingCode": "+52",
    "Latitude": 20.07797,
    "Longitude": -99.0786
  },
  {
    "Id": "1733045",
    "Code": "MY",
    "Languages": "ms-MY,en,zh,ta,te,ml,pa,th",
    "Name_EN": "Malaysia",
    "Name_FA": "مالزی",
    "Name_AR": "ماليزيا",
    "CallingCode": "+60",
    "Latitude": 3.84117,
    "Longitude": 103.36645
  },
  {
    "Id": "1036973",
    "Code": "MZ",
    "Languages": "pt-MZ,vmw",
    "Name_EN": "Mozambique",
    "Name_FA": "موزامبیک",
    "Name_AR": "موزمبيق",
    "CallingCode": "+258",
    "Latitude": -18.89813,
    "Longitude": 35.75264
  },
  {
    "Id": "3355338",
    "Code": "NA",
    "Languages": "en-NA,af,de,hz,naq",
    "Name_EN": "Namibia",
    "Name_FA": "نامیبیا",
    "Name_AR": "ناميبيا",
    "CallingCode": "+264",
    "Latitude": -21.55707,
    "Longitude": 17.17305
  },
  {
    "Id": "2139685",
    "Code": "NC",
    "Languages": "fr-NC",
    "Name_EN": "New Caledonia",
    "Name_FA": "کالدونیای جدید",
    "Name_AR": "كاليدونيا الجديدة",
    "CallingCode": "+687",
    "Latitude": -21.24882,
    "Longitude": 165.5859
  },
  {
    "Id": "2440476",
    "Code": "NE",
    "Languages": "fr-NE,ha,kr,dje",
    "Name_EN": "Niger",
    "Name_FA": "نیجر",
    "Name_AR": "النيجر",
    "CallingCode": "+227",
    "Latitude": 14.40564,
    "Longitude": 6.37625
  },
  {
    "Id": "2155115",
    "Code": "NF",
    "Languages": "en-NF",
    "Name_EN": "Norfolk Island",
    "Name_FA": "جزیره نورفولک",
    "Name_AR": "جزيرة نورفولك",
    "CallingCode": "+672",
    "Latitude": 0,
    "Longitude": 0
  },
  {
    "Id": "2328926",
    "Code": "NG",
    "Languages": "en-NG,ha,yo,ig,ff",
    "Name_EN": "Nigeria",
    "Name_FA": "نیجریه",
    "Name_AR": "نيجيريا",
    "CallingCode": "+234",
    "Latitude": 8.76249,
    "Longitude": 7.41985
  },
  {
    "Id": "3617476",
    "Code": "NI",
    "Languages": "es-NI,en",
    "Name_EN": "Nicaragua",
    "Name_FA": "نیکاراگويه",
    "Name_AR": "نيكاراغوا",
    "CallingCode": "+505",
    "Latitude": 12.58427,
    "Longitude": -85.87846
  },
  {
    "Id": "2750405",
    "Code": "NL",
    "Languages": "nl-NL,fy-NL",
    "Name_EN": "The Netherlands",
    "Name_FA": "هلند",
    "Name_AR": "هولندا",
    "CallingCode": "+31",
    "Latitude": 52.09556,
    "Longitude": 5.52285
  },
  {
    "Id": "3144096",
    "Code": "NO",
    "Languages": "no,nb,nn,se,fi",
    "Name_EN": "Norway",
    "Name_FA": "نروژ",
    "Name_AR": "النرويج",
    "CallingCode": "+47",
    "Latitude": 61.91649,
    "Longitude": 10.21163
  },
  {
    "Id": "1282988",
    "Code": "NP",
    "Languages": "ne,en",
    "Name_EN": "Nepal",
    "Name_FA": "نپال",
    "Name_AR": "النيبال",
    "CallingCode": "+977",
    "Latitude": 27.95763,
    "Longitude": 84.21525
  },
  {
    "Id": "2110425",
    "Code": "NR",
    "Languages": "na,en-NR",
    "Name_EN": "Nauru",
    "Name_FA": "نايورو",
    "Name_AR": "ناورو",
    "CallingCode": "+674",
    "Latitude": -0.52755,
    "Longitude": 166.93088
  },
  {
    "Id": "4036232",
    "Code": "NU",
    "Languages": "niu,en-NU",
    "Name_EN": "Niue",
    "Name_FA": "نیووی",
    "Name_AR": "نيوي",
    "CallingCode": "+683",
    "Latitude": 0,
    "Longitude": 0
  },
  {
    "Id": "2186224",
    "Code": "NZ",
    "Languages": "en-NZ,mi",
    "Name_EN": "New Zealand",
    "Name_FA": "زلاند نو",
    "Name_AR": "زيلندا الجديدة",
    "CallingCode": "+64",
    "Latitude": -40.45004,
    "Longitude": 173.36659
  },
  {
    "Id": "286963",
    "Code": "OM",
    "Languages": "ar-OM,en,bal,ur",
    "Name_EN": "Oman",
    "Name_FA": "عمان",
    "Name_AR": "عمان",
    "CallingCode": "+968",
    "Latitude": 23.19397,
    "Longitude": 57.09701
  },
  {
    "Id": "3703430",
    "Code": "PA",
    "Languages": "es-PA,en",
    "Name_EN": "Panama",
    "Name_FA": "پاناما",
    "Name_AR": "بنما",
    "CallingCode": "+507",
    "Latitude": 8.4828,
    "Longitude": -80.72841
  },
  {
    "Id": "3932488",
    "Code": "PE",
    "Languages": "es-PE,qu,ay",
    "Name_EN": "Peru",
    "Name_FA": "پرو",
    "Name_AR": "بيرو",
    "CallingCode": "+51",
    "Latitude": -10.6812,
    "Longitude": -75.5787
  },
  {
    "Id": "4030656",
    "Code": "PF",
    "Languages": "fr-PF,ty",
    "Name_EN": "French Polynesia",
    "Name_FA": "پلی‌نزی فرانسه",
    "Name_AR": "بولينسيا الفرنسية",
    "CallingCode": "+689",
    "Latitude": -17.46202,
    "Longitude": -148.84657
  },
  {
    "Id": "2088628",
    "Code": "PG",
    "Languages": "en-PG,ho,meu,tpi",
    "Name_EN": "Papua New Guinea",
    "Name_FA": "پاپوا گینه نو",
    "Name_AR": "بابوا غينيا الجديدة",
    "CallingCode": "+675",
    "Latitude": -6.21547,
    "Longitude": 146.81385
  },
  {
    "Id": "1694008",
    "Code": "PH",
    "Languages": "tl,en-PH,fil,ceb,ilo,hil,war,pam,bik,bcl,pag,mrw,tsg,mdh,cbk,krj,sgd,msb,akl,ibg,yka,mta,abx",
    "Name_EN": "Philippines",
    "Name_FA": "فیلیپین",
    "Name_AR": "الفيلبين",
    "CallingCode": "+63",
    "Latitude": 11.8979,
    "Longitude": 122.73306
  },
  {
    "Id": "1168579",
    "Code": "PK",
    "Languages": "ur-PK,en-PK,pa,sd,ps,brh",
    "Name_EN": "Pakistan",
    "Name_FA": "پاکستان",
    "Name_AR": "الباكستان",
    "CallingCode": "+92",
    "Latitude": 30.35641,
    "Longitude": 71.19131
  },
  {
    "Id": "798544",
    "Code": "PL",
    "Languages": "pl",
    "Name_EN": "Poland",
    "Name_FA": "لهستان",
    "Name_AR": "بولندا",
    "CallingCode": "+48",
    "Latitude": 51.47804,
    "Longitude": 19.46498
  },
  {
    "Id": "3424932",
    "Code": "PM",
    "Languages": "fr-PM",
    "Name_EN": "Saint Pierre and Miquelon",
    "Name_FA": "سن پیر و میکلن",
    "Name_AR": "سان بيير ومكويلون",
    "CallingCode": "+508",
    "Latitude": 46.93832,
    "Longitude": -56.27935
  },
  {
    "Id": "4030699",
    "Code": "PN",
    "Languages": "en-PN",
    "Name_EN": "Pitcairn",
    "Name_FA": "جزایر پیت‌کرن",
    "Name_AR": "جزر بيتكيرن",
    "CallingCode": "+870",
    "Latitude": 0,
    "Longitude": 0
  },
  {
    "Id": "4566966",
    "Code": "PR",
    "Languages": "en-PR,es-PR",
    "Name_EN": "Puerto Rico",
    "Name_FA": "پورتوریکو",
    "Name_AR": "بورتوريكو",
    "CallingCode": "+1-787 and 1-939",
    "Latitude": 18.23216,
    "Longitude": -66.38449
  },
  {
    "Id": "6254930",
    "Code": "PS",
    "Languages": "ar-PS",
    "Name_EN": "Palestinian Territory",
    "Name_FA": "فلسطین",
    "Name_AR": "فلسطين",
    "CallingCode": "+970",
    "Latitude": 31.97241,
    "Longitude": 35.13254
  },
  {
    "Id": "2264397",
    "Code": "PT",
    "Languages": "pt-PT,mwl",
    "Name_EN": "Portugal",
    "Name_FA": "پرتغال",
    "Name_AR": "البرتغال",
    "CallingCode": "+351",
    "Latitude": 39.5575,
    "Longitude": -9.85758
  },
  {
    "Id": "1559582",
    "Code": "PW",
    "Languages": "pau,sov,en-PW,tox,ja,fil,zh",
    "Name_EN": "Palau",
    "Name_FA": "پالايو",
    "Name_AR": "بالاو",
    "CallingCode": "+680",
    "Latitude": 7.19386,
    "Longitude": 134.31093
  },
  {
    "Id": "3437598",
    "Code": "PY",
    "Languages": "es-PY,gn",
    "Name_EN": "Paraguay",
    "Name_FA": "پاراگويه",
    "Name_AR": "باراغواي",
    "CallingCode": "+595",
    "Latitude": -25.31402,
    "Longitude": -56.64957
  },
  {
    "Id": "289688",
    "Code": "QA",
    "Languages": "ar-QA,es",
    "Name_EN": "Qatar",
    "Name_FA": "قطر",
    "Name_AR": "قطر",
    "CallingCode": "+974",
    "Latitude": 25.37125,
    "Longitude": 51.41018
  },
  {
    "Id": "935317",
    "Code": "RE",
    "Languages": "fr-RE",
    "Name_EN": "Reunion",
    "Name_FA": "ريونیون",
    "Name_AR": "روينيون",
    "CallingCode": "+262",
    "Latitude": -21.1189,
    "Longitude": 55.49876
  },
  {
    "Id": "798549",
    "Code": "RO",
    "Languages": "ro,hu,rom",
    "Name_EN": "Romania",
    "Name_FA": "رومانی",
    "Name_AR": "رومانيا",
    "CallingCode": "+40",
    "Latitude": 45.83148,
    "Longitude": 25.08052
  },
  {
    "Id": "6290252",
    "Code": "RS",
    "Languages": "sr,hu,bs,rom",
    "Name_EN": "Serbia",
    "Name_FA": "صربستان",
    "Name_AR": "جمهورية صربيا",
    "CallingCode": "+381",
    "Latitude": 44.6863,
    "Longitude": 20.43083
  },
  {
    "Id": "2017370",
    "Code": "RU",
    "Languages": "ru,tt,xal,cau,ady,kv,ce,tyv,cv,udm,tut,mns,bua,myv,mdf,chm,ba,inh,kbd,krc,av,sah,nog",
    "Name_EN": "Russia",
    "Name_FA": "روسیه",
    "Name_AR": "روسيا",
    "CallingCode": "+7",
    "Latitude": 53.63451,
    "Longitude": 57.66337
  },
  {
    "Id": "49518",
    "Code": "RW",
    "Languages": "rw,en-RW,fr-RW,sw",
    "Name_EN": "Rwanda",
    "Name_FA": "رواندا",
    "Name_AR": "رواندا",
    "CallingCode": "+250",
    "Latitude": -2.05874,
    "Longitude": 29.62854
  },
  {
    "Id": "102358",
    "Code": "SA",
    "Languages": "ar-SA",
    "Name_EN": "Saudi Arabia",
    "Name_FA": "عربستان",
    "Name_AR": "العربية السعودية",
    "CallingCode": "+966",
    "Latitude": 24.29646,
    "Longitude": 44.28677
  },
  {
    "Id": "2103350",
    "Code": "SB",
    "Languages": "en-SB,tpi",
    "Name_EN": "Solomon Islands",
    "Name_FA": "جزایر سلیمان",
    "Name_AR": "جزر سليمان",
    "CallingCode": "+677",
    "Latitude": -8.94659,
    "Longitude": 159.83311
  },
  {
    "Id": "241170",
    "Code": "SC",
    "Languages": "en-SC,fr-SC",
    "Name_EN": "Seychelles",
    "Name_FA": "سیشل",
    "Name_AR": "سيشل",
    "CallingCode": "+248",
    "Latitude": -4.63934,
    "Longitude": 55.50583
  },
  {
    "Id": "366755",
    "Code": "SD",
    "Languages": "ar-SD,en,fia",
    "Name_EN": "Sudan",
    "Name_FA": "سودان",
    "Name_AR": "السودان",
    "CallingCode": "+249",
    "Latitude": 14.30994,
    "Longitude": 31.45197
  },
  {
    "Id": "7909807",
    "Code": "SS",
    "Languages": "en",
    "Name_EN": "South Sudan",
    "Name_FA": "سودان جنوبی",
    "Name_AR": "جنوب السودان",
    "CallingCode": "+211",
    "Latitude": 6.99822,
    "Longitude": 29.54268
  },
  {
    "Id": "2661886",
    "Code": "SE",
    "Languages": "sv-SE,se,sma,fi-SE",
    "Name_EN": "Sweden",
    "Name_FA": "سويد",
    "Name_AR": "السويد",
    "CallingCode": "+46",
    "Latitude": 59.09172,
    "Longitude": 15.36207
  },
  {
    "Id": "1880251",
    "Code": "SG",
    "Languages": "cmn,en-SG,ms-SG,ta-SG,zh-SG",
    "Name_EN": "Singapore",
    "Name_FA": "سنگاپور",
    "Name_AR": "سنغافورة",
    "CallingCode": "+65",
    "Latitude": 0,
    "Longitude": 0
  },
  {
    "Id": "3370751",
    "Code": "SH",
    "Languages": "en-SH",
    "Name_EN": "Saint Helena",
    "Name_FA": "سنت هلن",
    "Name_AR": "سانت هيلينا",
    "CallingCode": "+290",
    "Latitude": -18.12533,
    "Longitude": -8.262
  },
  {
    "Id": "3190538",
    "Code": "SI",
    "Languages": "sl,sh",
    "Name_EN": "Slovenia",
    "Name_FA": "اسلوونی",
    "Name_AR": "سلوفينيا",
    "CallingCode": "+386",
    "Latitude": 46.21486,
    "Longitude": 14.9589
  },
  {
    "Id": "607072",
    "Code": "SJ",
    "Languages": "no,ru",
    "Name_EN": "Svalbard and Jan Mayen",
    "Name_FA": "سوالبارد و یان ماین",
    "Name_AR": "سفالبارد وجان ماين",
    "CallingCode": "+47",
    "Latitude": 74.57272,
    "Longitude": 3.4641
  },
  {
    "Id": "3057568",
    "Code": "SK",
    "Languages": "sk,hu",
    "Name_EN": "Slovakia",
    "Name_FA": "اسلواکی",
    "Name_AR": "سلوفاكيا",
    "CallingCode": "+421",
    "Latitude": 48.54412,
    "Longitude": 18.58323
  },
  {
    "Id": "2403846",
    "Code": "SL",
    "Languages": "en-SL,men,tem",
    "Name_EN": "Sierra Leone",
    "Name_FA": "سیراليون",
    "Name_AR": "سيراليون",
    "CallingCode": "+232",
    "Latitude": 8.35595,
    "Longitude": -11.79883
  },
  {
    "Id": "3168068",
    "Code": "SM",
    "Languages": "it-SM",
    "Name_EN": "San Marino",
    "Name_FA": "سان‌مارینو",
    "Name_AR": "سان مارينو",
    "CallingCode": "+378",
    "Latitude": 43.94191,
    "Longitude": 12.46331
  },
  {
    "Id": "2245662",
    "Code": "SN",
    "Languages": "fr-SN,wo,fuc,mnk",
    "Name_EN": "Senegal",
    "Name_FA": "سنگال",
    "Name_AR": "السنغال",
    "CallingCode": "+221",
    "Latitude": 14.54231,
    "Longitude": -15.52738
  },
  {
    "Id": "51537",
    "Code": "SO",
    "Languages": "so-SO,ar-SO,it,en-SO",
    "Name_EN": "Somalia",
    "Name_FA": "سومالی",
    "Name_AR": "الصومال",
    "CallingCode": "+252",
    "Latitude": 5.91902,
    "Longitude": 45.38829
  },
  {
    "Id": "3382998",
    "Code": "SR",
    "Languages": "nl-SR,en,srn,hns,jv",
    "Name_EN": "Suriname",
    "Name_FA": "سورینام",
    "Name_AR": "سورينام",
    "CallingCode": "+597",
    "Latitude": 5.52892,
    "Longitude": -55.26612
  },
  {
    "Id": "2410758",
    "Code": "ST",
    "Languages": "pt-ST",
    "Name_EN": "Sao Tome and Principe",
    "Name_FA": "سايوتومه و پرینسیپه",
    "Name_AR": "سان تومي وبرينسيبي",
    "CallingCode": "+239",
    "Latitude": 0.33421,
    "Longitude": 6.68677
  },
  {
    "Id": "3585968",
    "Code": "SV",
    "Languages": "es-SV",
    "Name_EN": "El Salvador",
    "Name_FA": "السالوادور",
    "Name_AR": "السلفادور",
    "CallingCode": "+503",
    "Latitude": 13.69218,
    "Longitude": -88.91955
  },
  {
    "Id": "7609695",
    "Code": "SX",
    "Languages": "nl,en",
    "Name_EN": "Sint Maarten",
    "Name_FA": "سنت مارتن",
    "Name_AR": "سنت مارتن",
    "CallingCode": "+599",
    "Latitude": 0,
    "Longitude": 0
  },
  {
    "Id": "163843",
    "Code": "SY",
    "Languages": "ar-SY,ku,hy,arc,fr,en",
    "Name_EN": "Syria",
    "Name_FA": "سوریه",
    "Name_AR": "سورية",
    "CallingCode": "+963",
    "Latitude": 34.99218,
    "Longitude": 37.10848
  },
  {
    "Id": "934841",
    "Code": "SZ",
    "Languages": "en-SZ,ss-SZ",
    "Name_EN": "Eswatini",
    "Name_FA": "سوازیلند",
    "Name_AR": "اسواتيني",
    "CallingCode": "+268",
    "Latitude": -26.49654,
    "Longitude": 31.42038
  },
  {
    "Id": "3576916",
    "Code": "TC",
    "Languages": "en-TC",
    "Name_EN": "Turks and Caicos Islands",
    "Name_FA": "جزایر تورکس و کایکوس",
    "Name_AR": "جزر توركس وكايكوس",
    "CallingCode": "+1-649",
    "Latitude": 0,
    "Longitude": 0
  },
  {
    "Id": "2434508",
    "Code": "TD",
    "Languages": "fr-TD,ar-TD,sre",
    "Name_EN": "Chad",
    "Name_FA": "چاد",
    "Name_AR": "تشاد",
    "CallingCode": "+235",
    "Latitude": 11.98918,
    "Longitude": 17.48273
  },
  {
    "Id": "1546748",
    "Code": "TF",
    "Languages": "fr",
    "Name_EN": "French Southern Territories",
    "Name_FA": "سرزمین‌های جنوب فرانسه",
    "Name_AR": "الاقاليم الجنوبية الفرنسية",
    "CallingCode": "+",
    "Latitude": -49.34916,
    "Longitude": 70.21937
  },
  {
    "Id": "2363686",
    "Code": "TG",
    "Languages": "fr-TG,ee,hna,kbp,dag,ha",
    "Name_EN": "Togo",
    "Name_FA": "توگو",
    "Name_AR": "توغو",
    "CallingCode": "+228",
    "Latitude": 8.23023,
    "Longitude": 0.97474
  },
  {
    "Id": "1605651",
    "Code": "TH",
    "Languages": "th,en",
    "Name_EN": "Thailand",
    "Name_FA": "تایلند",
    "Name_AR": "تايلاند",
    "CallingCode": "+66",
    "Latitude": 14.29634,
    "Longitude": 101.19985
  },
  {
    "Id": "1220409",
    "Code": "TJ",
    "Languages": "tg,ru",
    "Name_EN": "Tajikistan",
    "Name_FA": "تاجیکستان",
    "Name_AR": "تاجيكستان",
    "CallingCode": "+992",
    "Latitude": 38.77861,
    "Longitude": 69.51034
  },
  {
    "Id": "4031074",
    "Code": "TK",
    "Languages": "tkl,en-TK",
    "Name_EN": "Tokelau",
    "Name_FA": "توکلايو",
    "Name_AR": "توكيلو",
    "CallingCode": "+690",
    "Latitude": -9.04258,
    "Longitude": -171.87023
  },
  {
    "Id": "1966436",
    "Code": "TL",
    "Languages": "tet,pt-TL,id,en",
    "Name_EN": "Timor Leste",
    "Name_FA": "تیمور شرقی",
    "Name_AR": "تيمور الشرقية",
    "CallingCode": "+670",
    "Latitude": -8.7294,
    "Longitude": 125.73485
  },
  {
    "Id": "1218197",
    "Code": "TM",
    "Languages": "tk,ru,uz",
    "Name_EN": "Turkmenistan",
    "Name_FA": "ترکمنستان",
    "Name_AR": "تركمانستان",
    "CallingCode": "+993",
    "Latitude": 38.84454,
    "Longitude": 60.05642
  },
  {
    "Id": "2464461",
    "Code": "TN",
    "Languages": "ar-TN,fr",
    "Name_EN": "Tunisia",
    "Name_FA": "تونس",
    "Name_AR": "تونس",
    "CallingCode": "+216",
    "Latitude": 35.64161,
    "Longitude": 10.01917
  },
  {
    "Id": "4032283",
    "Code": "TO",
    "Languages": "to,en-TO",
    "Name_EN": "Tonga",
    "Name_FA": "تونگا",
    "Name_AR": "تونغا",
    "CallingCode": "+676",
    "Latitude": -20.47327,
    "Longitude": -174.87714
  },
  {
    "Id": "298795",
    "Code": "TR",
    "Languages": "tr-TR,ku,diq,az,av",
    "Name_EN": "Turkey",
    "Name_FA": "ترکیه",
    "Name_AR": "تركيا",
    "CallingCode": "+90",
    "Latitude": 38.65558,
    "Longitude": 34.66332
  },
  {
    "Id": "3573591",
    "Code": "TT",
    "Languages": "en-TT,hns,fr,es,zh",
    "Name_EN": "Trinidad and Tobago",
    "Name_FA": "ترینیداد و توباگو",
    "Name_AR": "ترينيداد وتوباغو",
    "CallingCode": "+1-868",
    "Latitude": 10.47399,
    "Longitude": -61.39731
  },
  {
    "Id": "2110297",
    "Code": "TV",
    "Languages": "tvl,en,sm,gil",
    "Name_EN": "Tuvalu",
    "Name_FA": "تووالو",
    "Name_AR": "توفالو",
    "CallingCode": "+688",
    "Latitude": -7.8128,
    "Longitude": 178.47161
  },
  {
    "Id": "1668284",
    "Code": "TW",
    "Languages": "zh-TW,zh,nan,hak",
    "Name_EN": "Taiwan",
    "Name_FA": "تایوان",
    "Name_AR": "تايوان",
    "CallingCode": "+886",
    "Latitude": 24.16356,
    "Longitude": 120.66892
  },
  {
    "Id": "149590",
    "Code": "TZ",
    "Languages": "sw-TZ,en,ar",
    "Name_EN": "Tanzania",
    "Name_FA": "تانزانیا",
    "Name_AR": "تانزانيا",
    "CallingCode": "+255",
    "Latitude": -5.85813,
    "Longitude": 35.54007
  },
  {
    "Id": "690791",
    "Code": "UA",
    "Languages": "uk,ru-UA,rom,pl,hu",
    "Name_EN": "Ukraine",
    "Name_FA": "اوکراین",
    "Name_AR": "اوكرانيا",
    "CallingCode": "+380",
    "Latitude": 47.75402,
    "Longitude": 30.82556
  },
  {
    "Id": "226074",
    "Code": "UG",
    "Languages": "en-UG,lg,sw,ar",
    "Name_EN": "Uganda",
    "Name_FA": "اوگاندا",
    "Name_AR": "اوغندا",
    "CallingCode": "+256",
    "Latitude": 0.80658,
    "Longitude": 32.07568
  },
  {
    "Id": "5854968",
    "Code": "UM",
    "Languages": "en-UM",
    "Name_EN": "United States Minor Outlying Islands",
    "Name_FA": "جزایر دورافتاده ایالات متحده",
    "Name_AR": "جزر الولايات المتحدة النايية",
    "CallingCode": "+1",
    "Latitude": 0,
    "Longitude": 0
  },
  {
    "Id": "6252001",
    "Code": "US",
    "Languages": "en-US,es-US,haw,fr",
    "Name_EN": "United States",
    "Name_FA": "ایالات متحده امریکا",
    "Name_AR": "الاولايات المتحدة الامريكية",
    "CallingCode": "+1",
    "Latitude": 38.5531,
    "Longitude": -90.55751
  },
  {
    "Id": "3439705",
    "Code": "UY",
    "Languages": "es-UY",
    "Name_EN": "Uruguay",
    "Name_FA": "اوروگويه",
    "Name_AR": "اروغواي",
    "CallingCode": "+598",
    "Latitude": -33.48325,
    "Longitude": -56.25152
  },
  {
    "Id": "1512440",
    "Code": "UZ",
    "Languages": "uz,ru,tg",
    "Name_EN": "Uzbekistan",
    "Name_FA": "ازبکستان",
    "Name_AR": "ازبكستان",
    "CallingCode": "+998",
    "Latitude": 40.59179,
    "Longitude": 67.2645
  },
  {
    "Id": "3164670",
    "Code": "VA",
    "Languages": "la,it,fr",
    "Name_EN": "Vatican",
    "Name_FA": "واتیکان",
    "Name_AR": "الفاتيكان",
    "CallingCode": "+379",
    "Latitude": 0,
    "Longitude": 0
  },
  {
    "Id": "3577815",
    "Code": "VC",
    "Languages": "en-VC,fr",
    "Name_EN": "Saint Vincent and the Grenadines",
    "Name_FA": "سنت وینسنت و گرنادین",
    "Name_AR": "سانت فنسنت وجزر غرينادين",
    "CallingCode": "+1-784",
    "Latitude": 13.16472,
    "Longitude": -61.20003
  },
  {
    "Id": "3625428",
    "Code": "VE",
    "Languages": "es-VE",
    "Name_EN": "Venezuela",
    "Name_FA": "ونزويلا",
    "Name_AR": "فنزويلا",
    "CallingCode": "+58",
    "Latitude": 9.39418,
    "Longitude": -68.2769
  },
  {
    "Id": "3577718",
    "Code": "VG",
    "Languages": "en-VG",
    "Name_EN": "British Virgin Islands",
    "Name_FA": "جزایر ویرجین بریتانیا",
    "Name_AR": "جزر فيرجن البريطانية",
    "CallingCode": "+1-284",
    "Latitude": 0,
    "Longitude": 0
  },
  {
    "Id": "4796775",
    "Code": "VI",
    "Languages": "en-VI",
    "Name_EN": "U.S. Virgin Islands",
    "Name_FA": "جزایر ویرجین ایالات متحده",
    "Name_AR": "جزر فيرجن التابعة للولايات المتحدة",
    "CallingCode": "+1-340",
    "Latitude": 18.07811,
    "Longitude": -64.80836
  },
  {
    "Id": "1562822",
    "Code": "VN",
    "Languages": "vi,en,fr,zh,km",
    "Name_EN": "Vietnam",
    "Name_FA": "ویتنام",
    "Name_AR": "فيتنام",
    "CallingCode": "+84",
    "Latitude": 16.48712,
    "Longitude": 106.33957
  },
  {
    "Id": "2134431",
    "Code": "VU",
    "Languages": "bi,en-VU,fr-VU",
    "Name_EN": "Vanuatu",
    "Name_FA": "وانواتو",
    "Name_AR": "فانواتو",
    "CallingCode": "+678",
    "Latitude": -16.20882,
    "Longitude": 167.75456
  },
  {
    "Id": "4034749",
    "Code": "WF",
    "Languages": "wls,fud,fr-WF",
    "Name_EN": "Wallis and Futuna",
    "Name_FA": "والیس و فوتونا",
    "Name_AR": "والس وفوتونا",
    "CallingCode": "+681",
    "Latitude": -13.47525,
    "Longitude": -176.53921
  },
  {
    "Id": "4034894",
    "Code": "WS",
    "Languages": "sm,en-WS",
    "Name_EN": "Samoa",
    "Name_FA": "ساموا",
    "Name_AR": "ساموا",
    "CallingCode": "+685",
    "Latitude": -13.77691,
    "Longitude": -172.02488
  },
  {
    "Id": "69543",
    "Code": "YE",
    "Languages": "ar-YE",
    "Name_EN": "Yemen",
    "Name_FA": "یمن",
    "Name_AR": "اليمن",
    "CallingCode": "+967",
    "Latitude": 14.89836,
    "Longitude": 45.15801
  },
  {
    "Id": "1024031",
    "Code": "YT",
    "Languages": "fr-YT",
    "Name_EN": "Mayotte",
    "Name_FA": "مایوت",
    "Name_AR": "مايوت",
    "CallingCode": "+262",
    "Latitude": -12.82568,
    "Longitude": 45.15239
  },
  {
    "Id": "953987",
    "Code": "ZA",
    "Languages": "zu,xh,af,nso,en-ZA,tn,st,ts,ss,ve,nr",
    "Name_EN": "South Africa",
    "Name_FA": "افریقای جنوبی",
    "Name_AR": "جنوب افريقيا",
    "CallingCode": "+27",
    "Latitude": -29.00673,
    "Longitude": 26.81484
  },
  {
    "Id": "895949",
    "Code": "ZM",
    "Languages": "en-ZM,bem,loz,lun,lue,ny,toi",
    "Name_EN": "Zambia",
    "Name_FA": "زامبیا",
    "Name_AR": "زامبيا",
    "CallingCode": "+260",
    "Latitude": -13.55052,
    "Longitude": 28.12245
  },
  {
    "Id": "878675",
    "Code": "ZW",
    "Languages": "en-ZW,sn,nr,nd",
    "Name_EN": "Zimbabwe",
    "Name_FA": "زیمبابوه",
    "Name_AR": "زيمبابوي",
    "CallingCode": "+263",
    "Latitude": -18.49415,
    "Longitude": 30.35458
  },
  {
    "Id": "8505033",
    "Code": "CS",
    "Languages": "cu,hu,sq,sr",
    "Name_EN": "Serbia and Montenegro",
    "Name_FA": "",
    "Name_AR": "صربيا والجبل الاسود",
    "CallingCode": "+381",
    "Latitude": 0,
    "Longitude": 0
  },
  {
    "Id": "8505032",
    "Code": "AN",
    "Languages": "nl-AN,en,es",
    "Name_EN": "Netherlands Antilles",
    "Name_FA": "",
    "Name_AR": "الانتيل الهولندية",
    "CallingCode": "+599",
    "Latitude": 0,
    "Longitude": 0
  }
]